SIRION PATHFINDER-2     
1 43759U 18099B   26132.56685789  .00003136  00000+0  17510-3 0  9992
2 43759  97.4283 182.4749 0010261  68.9121 291.3207 15.14213536407236
CORVUS BC4              
1 43767U 18099K   26132.85634654  .00002972  00000+0  17562-3 0  9992
2 43767  97.4099 176.8737 0009934 118.9467 241.2761 15.12199063407064
M2 PATHFINDER           
1 45727U 20037E   26132.79928986  .00001677  00000+0  12419-3 0  9999
2 45727  97.8165 323.6354 0010130 272.8977  87.1089 15.04518769320178
NETSAT-4                
1 46504U 20068U   26132.46217765  .00011039  00000+0  25526-3 0  9993
2 46504  97.8618 137.8677 0007643  91.7168 268.4954 15.42659452310264
NETSAT-3                
1 46505U 20068V   26132.76500569  .00012101  00000+0  29114-3 0  9992
2 46505  97.8666 136.4576 0007548 103.6114 256.5972 15.41436193310227
NETSAT-1                
1 46506U 20068W   26132.45824978  .00008120  00000+0  25125-3 0  9996
2 46506  97.8751 130.8697 0006725 123.5532 236.6352 15.33755660309825
NETSAT-2                
1 46507U 20068X   26132.74178667  .00014764  00000+0  32056-3 0  9998
2 46507  97.8632 137.9447 0006178 111.8549 248.3355 15.44467626310262
GREENCUBE (IO-117)      
1 53109U 22080E   26132.54356058 -.00000003  00000+0  00000+0 0  9992
2 53109  70.1440 310.6463 0008862 297.7055  62.2705  6.42583333 89778
SITRO-AIS 5 (KATYS)     
1 57176U 23091L   26132.86118391  .00007606  00000+0  27552-3 0  9994
2 57176  97.5084 196.4445 0010709 220.0862 139.9589 15.28623872158946
SITRO-AIS 6 (CHIRKIN)   
1 57192U 23091AC  26132.82600773  .00003756  00000+0  15215-3 0  9993
2 57192  97.5090 195.7112 0010864 224.0274 136.0099 15.25249588158890
SITRO-AIS 8 (ANOKHIN)   
1 57193U 23091AD  26132.87283690  .00008093  00000+0  27114-3 0  9994
2 57193  97.5079 197.9058 0010017 215.1767 144.8814 15.31156749159042
SITRO-AIS 7 (FARTUSHNIY)
1 57194U 23091AE  26132.82212392  .00003580  00000+0  14643-3 0  9990
2 57194  97.5088 195.5501 0010688 225.2146 134.8224 15.24955521158889
SITRO-AIS 10 (BURDAEV)  
1 57199U 23091AK  26132.85313593  .00011512  00000+0  31749-3 0  9993
2 57199  97.5100 202.5872 0007051 186.4440 173.6715 15.37248253159332
SITRO-AIS 9 (SHCHUKIN)  
1 57201U 23091AM  26132.86880242  .00011861  00000+0  33179-3 0  9994
2 57201  97.5098 202.3598 0007249 187.1558 172.9583 15.36795332159320
SITRO-AIS 12 (SMIRENNIY)
1 57204U 23091AQ  26132.86601846  .00012279  00000+0  34028-3 0  9996
2 57204  97.5111 202.8023 0007054 181.1446 178.9783 15.37080340159348
SITRO-AIS 11 (SHEFFER)  
1 57208U 23091AU  26132.82371958  .00012281  00000+0  33610-3 0  9993
2 57208  97.5109 202.9843 0006968 181.0407 179.0824 15.37470709159350
SITRO-AIS 25            
1 59066U 24039R   26132.86384839  .00002802  00000+0  21874-3 0  9993
2 59066  95.3921 210.8231 0147479  91.6622 270.1502 14.93260294119459
SITRO-AIS 26            
1 59067U 24039S   26132.86047079  .00002751  00000+0  21575-3 0  9997
2 59067  95.3924 210.7257 0147816  92.2020 269.6139 14.93063264119440
SITRO-AIS 27            
1 59068U 24039T   26132.84053407  .00003334  00000+0  25860-3 0  9997
2 59068  95.3924 210.9672 0147008  90.9897 270.8175 14.93474724119467
SITRO-AIS 28            
1 59071U 24039U   26132.88579065  .00003309  00000+0  25659-3 0  9996
2 59071  95.3925 211.0437 0146786  90.6986 271.1061 14.93508323119473
GRBBETA                 
1 60237U 24128C   26132.84220270  .00002653  00000+0  19015-3 0  9998
2 60237  61.9907 340.2469 0045321 127.3754 233.1479 15.06340987100940
OOV-CUBE (TUBSAT-30)    
1 60240U 24128F   26132.85411275  .00001471  00000+0  12316-3 0  9994
2 60240  61.9950 348.7614 0048932 126.0679 234.4960 15.02588662100804
ROBUSTA-3A (MEDITERRAN*)
1 60243U 24128J   26132.87177440  .00005088  00000+0  30795-3 0  9991
2 60243  61.9871 333.0785 0046054 121.2092 239.3529 15.11106531101081
LASARSAT                
1 62391U 24247Q   26132.61356156  .00020586  00000+0  44601-3 0  9995
2 62391  44.9736 101.7573 0004704 116.8398 243.2973 15.44141719 77811
CROCUBE                 
1 62394U 24247T   26132.32804579  .00022835  00000+0  46807-3 0  9992
2 62394  44.9711 101.2241 0004332 116.6031 243.5302 15.45714762 77794
FORESAIL-1 PRIME        
1 66778U 25276DS  26132.67656676  .00003149  00000+0  15652-3 0  9997
2 66778  97.4210 206.6047 0001783 189.3204 170.7997 15.18366758 25018
KNACKSAT-2              
1 67683U 98067XZ  26132.24535072  .00028003  00000+0  38703-3 0  9998
2 67683  51.6275 114.8101 0012576  65.8017 294.4288 15.56836313 14678
